     2.100          NAVIGATION                              RINEX VERSION / TYPE
fic2rin                                 08/03/2015 00:20:41 PGM / RUN BY / DATE
                                                            END OF HEADER
 5 15  8  2 18  0  0.0 -.210979487747D-03  .420641299570D-11  .000000000000D+00
     .390000000000D+02  .603437500000D+02  .470841040991D-08 -.252179509491D+01
     .307150185108D-05  .423673365731D-02  .113006681204D-04  .515361577034D+04
     .648000000000D+05 -.931322574615D-08 -.214583192478D+01  .670552253723D-07
     .946334853617D+00  .154562500000D+03  .380967600761D+00 -.808640825993D-08
     .538951020902D-09  .100000000000D+01  .185600000000D+04  .000000000000D+00
     .240000000000D+01  .000000000000D+00 -.107102096081D-07  .390000000000D+02
     .576060000000D+05  .400000000000D+01
 6 15  8  2 18  0  0.0  .295666977763D-04  .795807864051D-11  .000000000000D+00
     .400000000000D+01 -.100562500000D+03  .436839624695D-08  .310311316532D+01
    -.528618693352D-05  .163606251590D-03  .107288360596D-04  .515380038834D+04
     .648000000000D+05 -.186264514923D-07  .309644812665D+01  .633299350739D-07
     .962943285036D+00  .174937500000D+03  .275355561678D+01 -.797961809741D-08
    -.421088968617D-09  .100000000000D+01  .185600000000D+04  .000000000000D+00
     .240000000000D+01  .000000000000D+00  .419095158577D-08  .400000000000D+01
     .576060000000D+05  .400000000000D+01
 7 15  8  2 18  0  0.0  .477856490761D-03  .204636307899D-11  .000000000000D+00
     .460000000000D+02 -.226875000000D+02  .414160108574D-08  .104024700406D+00
    -.112317502499D-05  .878195476253D-02  .109225511551D-04  .515370717239D+04
     .648000000000D+05  .689178705215D-07 -.185309881186D-01  .132247805595D-06
     .969942876986D+00  .175562500000D+03 -.272867364631D+01 -.797104631179D-08
    -.362872257943D-09  .100000000000D+01  .185600000000D+04  .000000000000D+00
     .240000000000D+01  .000000000000D+00 -.111758708954D-07  .460000000000D+02
     .576060000000D+05  .400000000000D+01
 8 15  8  2 18  0  0.0 -.480562448502D-06 -.227373675443D-12  .000000000000D+00
     .310000000000D+02 -.775000000000D+01  .510949854541D-08 -.180664969115D+01
    -.311061739922D-06  .135554710869D-02  .153668224812D-05  .516402182198D+04
     .648000000000D+05 -.223517417908D-07  .204744825111D+01  .670552253723D-07
     .959834298848D+00  .347343750000D+03 -.184494850464D+01 -.852214069565D-08
     .660741808263D-10  .100000000000D+01  .185600000000D+04  .000000000000D+00
     .240000000000D+01  .630000000000D+02  .745058059692D-08  .310000000000D+02
     .576060000000D+05  .400000000000D+01
 9 15  8  2 18  0  0.0 -.999448820949D-05 -.125055521494D-11  .000000000000D+00
     .790000000000D+02  .353125000000D+01  .497163566001D-08  .196980645464D+01
     .292435288429D-06  .425319653004D-03  .402145087719D-05  .515375622177D+04
     .648000000000D+05 -.391155481339D-07 -.109506957820D+01  .745058059692D-08
     .956575484980D+00  .300625000000D+03  .281427434326D+01 -.842463663422D-08
    -.682171272315D-10  .100000000000D+01  .185600000000D+04  .000000000000D+00
     .240000000000D+01  .000000000000D+00  .931322574615D-09  .790000000000D+02
     .576060000000D+05  .400000000000D+01
10 15  8  2 18  0  0.0 -.185013283044D-03 -.147792889038D-11  .000000000000D+00
     .910000000000D+02  .589375000000D+02  .477662753714D-08 -.225064134907D+01
     .298395752907D-05  .149117860710D-01  .102650374174D-04  .515369901657D+04
     .648000000000D+05  .521540641785D-07 -.213113443302D+01 -.128522515297D-06
     .941117831735D+00  .170906250000D+03  .942005014016D+00 -.790568644643D-08
     .551451541599D-09  .100000000000D+01  .185600000000D+04  .000000000000D+00
     .340000000000D+01  .630000000000D+02 -.279396772385D-08  .910000000000D+02
     .576060000000D+05  .400000000000D+01
12 15  8  2 18  0  0.0  .315386801958D-03  .341060513165D-11  .000000000000D+00
     .450000000000D+02  .119093750000D+03  .396052211450D-08 -.433658186850D+00
     .633671879768D-05  .555398082361D-02  .946223735809D-05  .515364043999D+04
     .648000000000D+05  .875443220139D-07  .105112248775D+01  .745058059692D-07
     .989854014204D+00  .217031250000D+03  .643564348158D+00 -.793640201157D-08
     .561809115890D-09  .100000000000D+01  .185600000000D+04  .000000000000D+00
     .240000000000D+01  .000000000000D+00 -.125728547573D-07  .450000000000D+02
     .576060000000D+05  .400000000000D+01
13 15  8  2 18  0  0.0 -.137585680932D-03 -.329691829393D-11  .000000000000D+00
     .380000000000D+02 -.153750000000D+02  .468519515718D-08  .889915788199D+00
    -.817701220512D-06  .484167679679D-02  .428780913353D-05  .515367259026D+04
     .648000000000D+05  .204890966415D-07 -.978897230313D+00 -.113621354103D-06
     .973302351321D+00  .302593750000D+03  .209639427016D+01 -.835891961113D-08
    -.155720772109D-09  .100000000000D+01  .185600000000D+04  .000000000000D+00
     .240000000000D+01  .000000000000D+00 -.111758708954D-07  .380000000000D+02
     .576060000000D+05  .400000000000D+01
14 15  8  2 18  0  0.0  .445591285825D-04 -.272848410532D-11  .000000000000D+00
     .810000000000D+02 -.662500000000D+01  .471912514193D-08  .283710269859D+01
    -.327825546265D-06  .841366697568D-02  .420771539211D-05  .515362150383D+04
     .648000000000D+05  .353902578354D-07 -.101395734067D+01 -.502914190292D-07
     .965771787403D+00  .298593750000D+03 -.196893076066D+01 -.818641242551D-08
    -.853606984729D-10  .100000000000D+01  .185600000000D+04  .000000000000D+00
     .240000000000D+01  .000000000000D+00 -.931322574615D-08  .810000000000D+02
     .576060000000D+05  .400000000000D+01
15 15  8  2 18  0  0.0 -.263893045485D-03 -.204636307899D-11  .000000000000D+00
     .710000000000D+02  .734375000000D+01  .569559438722D-08  .217037708615D+01
     .346451997757D-06  .726003304590D-02  .362470746040D-05  .515367673683D+04
     .648000000000D+05 -.126659870148D-06 -.114032917389D+01 -.111758708954D-07
     .932394951547D+00  .296187500000D+03  .394527604950D+00 -.881108130262D-08
    -.385730352932D-10  .100000000000D+01  .185600000000D+04  .000000000000D+00
     .240000000000D+01  .000000000000D+00 -.107102096081D-07  .710000000000D+02
     .576060000000D+05  .400000000000D+01
16 15  8  2 18  0  0.0 -.101809855551D-03  .420641299570D-11  .000000000000D+00
     .800000000000D+02  .101187500000D+03  .390623413890D-08 -.245662582638D+01
     .505335628986D-05  .811021681875D-02  .939145684242D-05  .515359924126D+04
     .648000000000D+05 -.353902578354D-07  .106982285983D+01 -.221654772758D-06
     .990380497940D+00  .217250000000D+03  .324110463062D+00 -.775460872487D-08
     .540736809573D-09  .100000000000D+01  .185600000000D+04  .000000000000D+00
     .240000000000D+01  .000000000000D+00 -.102445483208D-07  .800000000000D+02
     .576060000000D+05  .400000000000D+01
17 15  8  2 18  0  0.0 -.182611402124D-03 -.147792889038D-11  .000000000000D+00
     .610000000000D+02 -.295625000000D+02  .476126975457D-08  .282452239016D+01
    -.154785811901D-05  .102741739247D-01  .149570405483D-05  .515354817581D+04
     .648000000000D+05  .465661287308D-07  .209595423172D+01 -.204890966415D-06
     .973030909797D+00  .354531250000D+03 -.201007438367D+01 -.830498879326D-08
    -.145363197818D-09  .100000000000D+01  .185600000000D+04  .000000000000D+00
     .340000000000D+01  .000000000000D+00 -.107102096081D-07  .610000000000D+02
     .576060000000D+05  .400000000000D+01
18 15  8  2 18  0  0.0  .422269105911D-03  .306954461848D-11  .000000000000D+00
     .700000000000D+02  .566562500000D+02  .510449833713D-08 -.188073892711D+01
     .285916030407D-05  .163744211895D-01  .113435089588D-04  .515362353325D+04
     .648000000000D+05  .400468707085D-06 -.216045557720D+01 -.335276126862D-07
     .924937555476D+00  .140500000000D+03 -.194445269748D+01 -.808926552181D-08
     .503235247482D-09  .100000000000D+01  .185600000000D+04  .000000000000D+00
     .240000000000D+01  .000000000000D+00 -.111758708954D-07  .700000000000D+02
     .576060000000D+05  .400000000000D+01
19 15  8  2 18  0  0.0 -.517399515957D-03 -.909494701773D-12  .000000000000D+00
     .490000000000D+02 -.265000000000D+02  .494056293713D-08  .200597360485D+01
    -.143982470036D-05  .116002319846D-01  .222958624363D-05  .515374931908D+04
     .648000000000D+05 -.305473804474D-06  .214535257041D+01  .409781932831D-07
     .970135312155D+00  .344937500000D+03  .591269812030D+00 -.850535428215D-08
    -.700029159024D-10  .100000000000D+01  .185600000000D+04  .000000000000D+00
     .240000000000D+01  .000000000000D+00 -.149011611938D-07  .490000000000D+02
     .576060000000D+05  .400000000000D+01
20 15  8  2 18  0  0.0  .343644991517D-03  .318323145621D-11  .000000000000D+00
     .540000000000D+02  .462187500000D+02  .519343061295D-08  .222928807160D+01
     .219233334064D-05  .478291313630D-02  .118911266327D-04  .515362448311D+04
     .648000000000D+05  .689178705215D-07 -.221270350622D+01 -.391155481339D-07
     .926183998253D+00  .130437500000D+03  .119153617818D+01 -.831748931396D-08
     .435018120251D-09  .100000000000D+01  .185600000000D+04  .000000000000D+00
     .240000000000D+01  .000000000000D+00 -.838190317154D-08  .540000000000D+02
     .576060000000D+05  .400000000000D+01
21 15  8  2 18  0  0.0 -.468815211207D-03 -.306954461848D-11  .000000000000D+00
     .440000000000D+02 -.108718750000D+03  .520700260684D-08 -.851778268738D+00
    -.556930899620D-05  .225086309947D-01  .104214996099D-04  .515378728676D+04
     .648000000000D+05 -.193715095520D-06  .308003298182D+01  .389292836189D-06
     .934801191388D+00  .165656250000D+03 -.189019682855D+01 -.877250826732D-08
    -.482520098899D-09  .100000000000D+01  .185600000000D+04  .000000000000D+00
     .240000000000D+01  .000000000000D+00 -.116415321827D-07  .440000000000D+02
     .576060000000D+05  .400000000000D+01
